CTC1_L_00022001-01
1 15602U 26746WC  26037.47800926  .00000000  00000+0  00000-0 0  9992
2 15602  85.0000   0.0000 0000000   0.0000   0.0000 15.80155563    19
CTC1_L_00022001-02
1 15603U 26019MP  26037.47800926  .00000000  00000+0  00000-0 0  9996
2 15603  85.0000   0.0000 0000000   0.0000  90.0000 15.80155563    19
CTC1_L_00022001-03
1 15604U 26013DU  26037.47800926  .00000000  00000+0  00000-0 0  9991
2 15604  85.0000   0.0000 0000000   0.0000 180.0000 15.80155563    10
CTC1_L_00022001-04
1 15605U 24338QM  26037.47800926  .00000000  00000+0  00000-0 0  9990
2 15605  85.0000   0.0000 0000000   0.0000 270.0000 15.80155563    11
CTC1_L_00022002-01
1 15606U 26808VM  26037.47800926  .00000000  00000+0  00000-0 0  9995
2 15606  85.0000  12.0000 0000000   0.0000  12.0000 15.80155563    19
CTC1_L_00022002-02
1 15607U 23630VU  26037.47800926  .00000000  00000+0  00000-0 0  9996
2 15607  85.0000  12.0000 0000000   0.0000 102.0000 15.80155563    10
CTC1_L_00022002-03
1 15608U 22552JO  26037.47800926  .00000000  00000+0  00000-0 0  9999
2 15608  85.0000  12.0000 0000000   0.0000 192.0000 15.80155563    10
CTC1_L_00022002-04
1 15609U 25126QS  26037.47800926  .00000000  00000+0  00000-0 0  9990
2 15609  85.0000  12.0000 0000000   0.0000 282.0000 15.80155563    11
CTC1_L_00022003-01
1 15610U 24894WN  26037.47800926  .00000000  00000+0  00000-0 0  9993
2 15610  85.0000  24.0000 0000000   0.0000  24.0000 15.80155563    10
CTC1_L_00022003-02
1 15611U 25691DD  26037.47800926  .00000000  00000+0  00000-0 0  9990
2 15611  85.0000  24.0000 0000000   0.0000 114.0000 15.80155563    11
CTC1_L_00022003-03
1 15612U 26270W   26037.47800926  .00000000  00000+0  00000-0 0  9995
2 15612  85.0000  24.0000 0000000   0.0000 204.0000 15.80155563    12
CTC1_L_00022003-04
1 15613U 25551FV  26037.47800926  .00000000  00000+0  00000-0 0  9997
2 15613  85.0000  24.0000 0000000   0.0000 294.0000 15.80155563    12
CTC1_L_00022004-01
1 15614U 26276LT  26037.47800926  .00000000  00000+0  00000-0 0  9993
2 15614  85.0000  36.0000 0000000   0.0000  36.0000 15.80155563    10
CTC1_L_00022004-02
1 15615U 24933VG  26037.47800926  .00000000  00000+0  00000-0 0  9992
2 15615  85.0000  36.0000 0000000   0.0000 126.0000 15.80155563    11
CTC1_L_00022004-03
1 15616U 23916J   26037.47800926  .00000000  00000+0  00000-0 0  9993
2 15616  85.0000  36.0000 0000000   0.0000 216.0000 15.80155563    12
CTC1_L_00022004-04
1 15617U 22518EJ  26037.47800926  .00000000  00000+0  00000-0 0  9991
2 15617  85.0000  36.0000 0000000   0.0000 306.0000 15.80155563    13
CTC1_L_00022005-01
1 15618U 24701ZU  26037.47800926  .00000000  00000+0  00000-0 0  9998
2 15618  85.0000  48.0000 0000000   0.0000  48.0000 15.80155563    10
CTC1_L_00022005-02
1 15619U 23001CK  26037.47800926  .00000000  00000+0  00000-0 0  9991
2 15619  85.0000  48.0000 0000000   0.0000 138.0000 15.80155563    11
CTC1_L_00022005-03
1 15620U 22302KL  26037.47800926  .00000000  00000+0  00000-0 0  9996
2 15620  85.0000  48.0000 0000000   0.0000 228.0000 15.80155563    13
CTC1_L_00022005-04
1 15621U 23676TB  26037.47800926  .00000000  00000+0  00000-0 0  9992
2 15621  85.0000  48.0000 0000000   0.0000 318.0000 15.80155563    14
CTC1_L_00022006-01
1 15622U 24906XH  26037.47800926  .00000000  00000+0  00000-0 0  9990
2 15622  85.0000  60.0000 0000000   0.0000  60.0000 15.80155563    13
CTC1_L_00022006-02
1 15623U 22977KV  26037.47800926  .00000000  00000+0  00000-0 0  9997
2 15623  85.0000  60.0000 0000000   0.0000 150.0000 15.80155563    14
CTC1_L_00022006-03
1 15624U 24622EE  26037.47800926  .00000000  00000+0  00000-0 0  9997
2 15624  85.0000  60.0000 0000000   0.0000 240.0000 15.80155563    15
CTC1_L_00022006-04
1 15625U 26381MR  26037.47800926  .00000000  00000+0  00000-0 0  9992
2 15625  85.0000  60.0000 0000000   0.0000 330.0000 15.80155563    16
CTC1_L_00022007-01
1 15626U 25056EB  26037.47800926  .00000000  00000+0  00000-0 0  9991
2 15626  85.0000  72.0000 0000000   0.0000  72.0000 15.80155563    13
CTC1_L_00022007-02
1 15627U 22877JH  26037.47800926  .00000000  00000+0  00000-0 0  9990
2 15627  85.0000  72.0000 0000000   0.0000 162.0000 15.80155563    14
CTC1_L_00022007-03
1 15628U 26049AR  26037.47800926  .00000000  00000+0  00000-0 0  9996
2 15628  85.0000  72.0000 0000000   0.0000 252.0000 15.80155563    15
CTC1_L_00022007-04
1 15629U 25774RB  26037.47800926  .00000000  00000+0  00000-0 0  9991
2 15629  85.0000  72.0000 0000000   0.0000 342.0000 15.80155563    16
CTC1_L_00022008-01
1 15630U 25473GI  26037.47800926  .00000000  00000+0  00000-0 0  9999
2 15630  85.0000  84.0000 0000000   0.0000  84.0000 15.80155563    14
CTC1_L_00022008-02
1 15631U 26910OG  26037.47800926  .00000000  00000+0  00000-0 0  9997
2 15631  85.0000  84.0000 0000000   0.0000 174.0000 15.80155563    15
CTC1_L_00022008-03
1 15632U 25019IG  26037.47800926  .00000000  00000+0  00000-0 0  9997
2 15632  85.0000  84.0000 0000000   0.0000 264.0000 15.80155563    16
CTC1_L_00022008-04
1 15633U 22131TE  26037.47800926  .00000000  00000+0  00000-0 0  9990
2 15633  85.0000  84.0000 0000000   0.0000 354.0000 15.80155563    17
CTC1_L_00022009-01
1 15634U 23408XY  26037.47800926  .00000000  00000+0  00000-0 0  9999
2 15634  85.0000  96.0000 0000000   0.0000  96.0000 15.80155563    14
CTC1_L_00022009-02
1 15635U 24864ZV  26037.47800926  .00000000  00000+0  00000-0 0  9997
2 15635  85.0000  96.0000 0000000   0.0000 186.0000 15.80155563    15
CTC1_L_00022009-03
1 15636U 26551TX  26037.47800926  .00000000  00000+0  00000-0 0  9993
2 15636  85.0000  96.0000 0000000   0.0000 276.0000 15.80155563    16
CTC1_L_00022009-04
1 15637U 23514DR  26037.47800926  .00000000  00000+0  00000-0 0  9990
2 15637  85.0000  96.0000 0000000   0.0000   6.0000 15.80155563    18
CTC1_L_00022010-01
1 15638U 24110OQ  26037.47800926  .00000000  00000+0  00000-0 0  9994
2 15638  85.0000 108.0000 0000000   0.0000 108.0000 15.80155563    16
CTC1_L_00022010-02
1 15639U 22384ZL  26037.47800926  .00000000  00000+0  00000-0 0  9996
2 15639  85.0000 108.0000 0000000   0.0000 198.0000 15.80155563    16
CTC1_L_00022010-03
1 15640U 24687SL  26037.47800926  .00000000  00000+0  00000-0 0  9996
2 15640  85.0000 108.0000 0000000   0.0000 288.0000 15.80155563    18
CTC1_L_00022010-04
1 15641U 25642ZZ  26037.47800926  .00000000  00000+0  00000-0 0  9999
2 15641  85.0000 108.0000 0000000   0.0000  18.0000 15.80155563    10
CTC1_L_00022011-01
1 15642U 23191XR  26037.47800926  .00000000  00000+0  00000-0 0  9997
2 15642  85.0000 120.0000 0000000   0.0000 120.0000 15.80155563    19
CTC1_L_00022011-02
1 15643U 24079XY  26037.47800926  .00000000  00000+0  00000-0 0  9994
2 15643  85.0000 120.0000 0000000   0.0000 210.0000 15.80155563    10
CTC1_L_00022011-03
1 15644U 23663NT  26037.47800926  .00000000  00000+0  00000-0 0  9993
2 15644  85.0000 120.0000 0000000   0.0000 300.0000 15.80155563    11
CTC1_L_00022011-04
1 15645U 25396A   26037.47800926  .00000000  00000+0  00000-0 0  9999
2 15645  85.0000 120.0000 0000000   0.0000  30.0000 15.80155563    12
CTC1_L_00022012-01
1 15646U 23014WE  26037.47800926  .00000000  00000+0  00000-0 0  9995
2 15646  85.0000 132.0000 0000000   0.0000 132.0000 15.80155563    19
CTC1_L_00022012-02
1 15647U 24937GY  26037.47800926  .00000000  00000+0  00000-0 0  9991
2 15647  85.0000 132.0000 0000000   0.0000 222.0000 15.80155563    10
CTC1_L_00022012-03
1 15648U 26977NZ  26037.47800926  .00000000  00000+0  00000-0 0  9998
2 15648  85.0000 132.0000 0000000   0.0000 312.0000 15.80155563    11
CTC1_L_00022012-04
1 15649U 26858GU  26037.47800926  .00000000  00000+0  00000-0 0  9997
2 15649  85.0000 132.0000 0000000   0.0000  42.0000 15.80155563    12
CTC1_L_00022013-01
1 15650U 24914LK  26037.47800926  .00000000  00000+0  00000-0 0  9990
2 15650  85.0000 144.0000 0000000   0.0000 144.0000 15.80155563    10
CTC1_L_00022013-02
1 15651U 23107YX  26037.47800926  .00000000  00000+0  00000-0 0  9994
2 15651  85.0000 144.0000 0000000   0.0000 234.0000 15.80155563    11
CTC1_L_00022013-03
1 15652U 22002OM  26037.47800926  .00000000  00000+0  00000-0 0  9998
2 15652  85.0000 144.0000 0000000   0.0000 324.0000 15.80155563    12
CTC1_L_00022013-04
1 15653U 26739KH  26037.47800926  .00000000  00000+0  00000-0 0  9990
2 15653  85.0000 144.0000 0000000   0.0000  54.0000 15.80155563    13
CTC1_L_00022014-01
1 15654U 22746KO  26037.47800926  .00000000  00000+0  00000-0 0  9995
2 15654  85.0000 156.0000 0000000   0.0000 156.0000 15.80155563    10
CTC1_L_00022014-02
1 15655U 23855Y   26037.47800926  .00000000  00000+0  00000-0 0  9998
2 15655  85.0000 156.0000 0000000   0.0000 246.0000 15.80155563    11
CTC1_L_00022014-03
1 15656U 25699SC  26037.47800926  .00000000  00000+0  00000-0 0  9997
2 15656  85.0000 156.0000 0000000   0.0000 336.0000 15.80155563    12
CTC1_L_00022014-04
1 15657U 24969HZ  26037.47800926  .00000000  00000+0  00000-0 0  9997
2 15657  85.0000 156.0000 0000000   0.0000  66.0000 15.80155563    13
CTC1_L_00022015-01
1 15658U 25800EX  26037.47800926  .00000000  00000+0  00000-0 0  9993
2 15658  85.0000 168.0000 0000000   0.0000 168.0000 15.80155563    10
CTC1_L_00022015-02
1 15659U 24739UF  26037.47800926  .00000000  00000+0  00000-0 0  9994
2 15659  85.0000 168.0000 0000000   0.0000 258.0000 15.80155563    11
CTC1_L_00022015-03
1 15660U 23882IN  26037.47800926  .00000000  00000+0  00000-0 0  9994
2 15660  85.0000 168.0000 0000000   0.0000 348.0000 15.80155563    13
CTC1_L_00022015-04
1 15661U 25111NS  26037.47800926  .00000000  00000+0  00000-0 0  9992
2 15661  85.0000 168.0000 0000000   0.0000  78.0000 15.80155563    14
CTC1_L_00022016-01
1 15662U 23143WC  26037.47800926  .00000000  00000+0  00000-0 0  9996
2 15662  85.0000 180.0000 0000000   0.0000 180.0000 15.80155563    13
CTC1_L_00022016-02
1 15663U 23365HR  26037.47800926  .00000000  00000+0  00000-0 0  9993
2 15663  85.0000 180.0000 0000000   0.0000 270.0000 15.80155563    14
